{
  "type": "FeatureCollection",
  "features": [
    {
      "type": "Feature",
      "properties": {
        "norad_id": 34121,
        "name": "COSMOS 2251 DEB",
        "group": "cosmos-2251-debris",
        "lat": 66.28186165151386,
        "lon": -106.91062654217075,
        "alt_km": 1059.4200061909778,
        "timestamp": "2025-12-02T23:34:15.910888+00:00",
        "meta_object_name": "COSMOS 2251 DEB",
        "meta_object_id": "1993-036KS",
        "meta_epoch": "2025-12-02T11:17:22.834752",
        "meta_mean_motion": 13.91874406,
        "meta_eccentricity": 0.023966,
        "meta_inclination": 73.9914,
        "meta_ra_of_asc_node": 114.7672,
        "meta_arg_of_pericenter": 322.4289,
        "meta_mean_anomaly": 100.5766,
        "meta_ephemeris_type": 0,
        "meta_classification_type": "U",
        "meta_norad_cat_id": 34121,
        "meta_element_set_no": 999,
        "meta_rev_at_epoch": 84982,
        "meta_bstar": 0.0012911,
        "meta_mean_motion_dot": 2.054e-05,
        "meta_mean_motion_ddot": 0,
        "tle_line1": "1 34121U 93036KS  25336.47040318  .00002054  00000+0  12911-2 0  9994",
        "tle_line2": "2 34121  73.9914 114.7672 0239660 322.4289 100.5766 13.91874406849829"
      },
      "geometry": {
        "type": "Point",
        "coordinates": [
          -106.91062654217075,
          66.28186165151386
        ]
      }
    },
    {
      "type": "Feature",
      "properties": {
        "norad_id": 34122,
        "name": "COSMOS 2251 DEB",
        "group": "cosmos-2251-debris",
        "lat": -45.78910005534707,
        "lon": 120.28885776804567,
        "alt_km": 678.6170892273176,
        "timestamp": "2025-12-02T23:34:15.910898+00:00",
        "meta_object_name": "COSMOS 2251 DEB",
        "meta_object_id": "1993-036KT",
        "meta_epoch": "2025-12-02T12:34:05.068128",
        "meta_mean_motion": 14.64833552,
        "meta_eccentricity": 0.0083833,
        "meta_inclination": 74.0347,
        "meta_ra_of_asc_node": 138.2844,
        "meta_arg_of_pericenter": 38.1344,
        "meta_mean_anomaly": 18.0536,
        "meta_ephemeris_type": 0,
        "meta_classification_type": "U",
        "meta_norad_cat_id": 34122,
        "meta_element_set_no": 999,
        "meta_rev_at_epoch": 88535,
        "meta_bstar": 0.0013043,
        "meta_mean_motion_dot": 7.308e-05,
        "meta_mean_motion_ddot": 0,
        "tle_line1": "1 34122U 93036KT  25336.52366977  .00007308  00000+0  13043-2 0  9997",
        "tle_line2": "2 34122  74.0347 138.2844 0083833  38.1344  18.0536 14.64833552885350"
      },
      "geometry": {
        "type": "Point",
        "coordinates": [
          120.28885776804567,
          -45.78910005534707
        ]
      }
    },
    {
      "type": "Feature",
      "properties": {
        "norad_id": 34127,
        "name": "COSMOS 2251 DEB",
        "group": "cosmos-2251-debris",
        "lat": -38.147316737258,
        "lon": 48.62865208736293,
        "alt_km": 747.215390481213,
        "timestamp": "2025-12-02T23:34:15.910908+00:00",
        "meta_object_name": "COSMOS 2251 DEB",
        "meta_object_id": "1993-036KY",
        "meta_epoch": "2025-12-02T07:14:54.074400",
        "meta_mean_motion": 14.31362037,
        "meta_eccentricity": 0.0114526,
        "meta_inclination": 74.1796,
        "meta_ra_of_asc_node": 62.7245,
        "meta_arg_of_pericenter": 265.1131,
        "meta_mean_anomaly": 150.7943,
        "meta_ephemeris_type": 0,
        "meta_classification_type": "U",
        "meta_norad_cat_id": 34127,
        "meta_element_set_no": 999,
        "meta_rev_at_epoch": 86622,
        "meta_bstar": 0.0025707,
        "meta_mean_motion_dot": 7.301e-05,
        "meta_mean_motion_ddot": 0,
        "tle_line1": "1 34127U 93036KY  25336.30201475  .00007301  00000+0  25707-2 0  9992",
        "tle_line2": "2 34127  74.1796  62.7245 0114526 265.1131 150.7943 14.31362037866220"
      },
      "geometry": {
        "type": "Point",
        "coordinates": [
          48.62865208736293,
          -38.147316737258
        ]
      }
    },
    {
      "type": "Feature",
      "properties": {
        "norad_id": 34128,
        "name": "COSMOS 2251 DEB",
        "group": "cosmos-2251-debris",
        "lat": -66.12009391417112,
        "lon": 177.02917046870627,
        "alt_km": 591.0601318027166,
        "timestamp": "2025-12-02T23:34:15.910919+00:00",
        "meta_object_name": "COSMOS 2251 DEB",
        "meta_object_id": "1993-036KZ",
        "meta_epoch": "2025-12-02T08:36:13.626720",
        "meta_mean_motion": 15.00327147,
        "meta_eccentricity": 0.0026535,
        "meta_inclination": 73.9993,
        "meta_ra_of_asc_node": 317.8962,
        "meta_arg_of_pericenter": 71.6637,
        "meta_mean_anomaly": 53.3601,
        "meta_ephemeris_type": 0,
        "meta_classification_type": "U",
        "meta_norad_cat_id": 34128,
        "meta_element_set_no": 999,
        "meta_rev_at_epoch": 89011,
        "meta_bstar": 0.0025709,
        "meta_mean_motion_dot": 0.00032605,
        "meta_mean_motion_ddot": 0,
        "tle_line1": "1 34128U 93036KZ  25336.35849105  .00032605  00000+0  25709-2 0  9993",
        "tle_line2": "2 34128  73.9993 317.8962 0026535  71.6637  53.3601 15.00327147890114"
      },
      "geometry": {
        "type": "Point",
        "coordinates": [
          177.02917046870627,
          -66.12009391417112
        ]
      }
    },
    {
      "type": "Feature",
      "properties": {
        "norad_id": 34129,
        "name": "COSMOS 2251 DEB",
        "group": "cosmos-2251-debris",
        "lat": -26.301821428850452,
        "lon": -9.51660200766918,
        "alt_km": 657.1436898383809,
        "timestamp": "2025-12-02T23:34:15.910929+00:00",
        "meta_object_name": "COSMOS 2251 DEB",
        "meta_object_id": "1993-036LA",
        "meta_epoch": "2025-12-02T10:40:37.125696",
        "meta_mean_motion": 14.75456452,
        "meta_eccentricity": 0.0032661,
        "meta_inclination": 74.0357,
        "meta_ra_of_asc_node": 359.6678,
        "meta_arg_of_pericenter": 84.7461,
        "meta_mean_anomaly": 275.7438,
        "meta_ephemeris_type": 0,
        "meta_classification_type": "U",
        "meta_norad_cat_id": 34129,
        "meta_element_set_no": 999,
        "meta_rev_at_epoch": 61146,
        "meta_bstar": 0.0013858,
        "meta_mean_motion_dot": 9.485e-05,
        "meta_mean_motion_ddot": 0,
        "tle_line1": "1 34129U 93036LA  25336.44487414  .00009485  00000+0  13858-2 0  9997",
        "tle_line2": "2 34129  74.0357 359.6678 0032661  84.7461 275.7438 14.75456452611466"
      },
      "geometry": {
        "type": "Point",
        "coordinates": [
          -9.51660200766918,
          -26.301821428850452
        ]
      }
    },
    {
      "type": "Feature",
      "properties": {
        "norad_id": 34136,
        "name": "COSMOS 2251 DEB",
        "group": "cosmos-2251-debris",
        "lat": -25.954565717982888,
        "lon": 53.857398830408194,
        "alt_km": 684.8361669420847,
        "timestamp": "2025-12-02T23:34:15.910939+00:00",
        "meta_object_name": "COSMOS 2251 DEB",
        "meta_object_id": "1993-036LH",
        "meta_epoch": "2025-12-02T12:25:48.515232",
        "meta_mean_motion": 14.79942471,
        "meta_eccentricity": 0.0086708,
        "meta_inclination": 74.0218,
        "meta_ra_of_asc_node": 62.7892,
        "meta_arg_of_pericenter": 188.3933,
        "meta_mean_anomaly": 191.9066,
        "meta_ephemeris_type": 0,
        "meta_classification_type": "U",
        "meta_norad_cat_id": 34136,
        "meta_element_set_no": 999,
        "meta_rev_at_epoch": 89859,
        "meta_bstar": 0.00080176,
        "meta_mean_motion_dot": 6.427e-05,
        "meta_mean_motion_ddot": 0,
        "tle_line1": "1 34136U 93036LH  25336.51792263  .00006427  00000+0  80176-3 0  9995",
        "tle_line2": "2 34136  74.0218  62.7892 0086708 188.3933 191.9066 14.79942471898598"
      },
      "geometry": {
        "type": "Point",
        "coordinates": [
          53.857398830408194,
          -25.954565717982888
        ]
      }
    },
    {
      "type": "Feature",
      "properties": {
        "norad_id": 34139,
        "name": "COSMOS 2251 DEB",
        "group": "cosmos-2251-debris",
        "lat": 67.16540572301125,
        "lon": -44.49436461816368,
        "alt_km": 689.069078887138,
        "timestamp": "2025-12-02T23:34:15.910949+00:00",
        "meta_object_name": "COSMOS 2251 DEB",
        "meta_object_id": "1993-036LL",
        "meta_epoch": "2025-12-02T07:29:16.259136",
        "meta_mean_motion": 14.58810246,
        "meta_eccentricity": 0.0042617,
        "meta_inclination": 74.0308,
        "meta_ra_of_asc_node": 273.9338,
        "meta_arg_of_pericenter": 346.6201,
        "meta_mean_anomaly": 168.4619,
        "meta_ephemeris_type": 0,
        "meta_classification_type": "U",
        "meta_norad_cat_id": 34139,
        "meta_element_set_no": 999,
        "meta_rev_at_epoch": 87997,
        "meta_bstar": 0.0021036,
        "meta_mean_motion_dot": 9.946e-05,
        "meta_mean_motion_ddot": 0,
        "tle_line1": "1 34139U 93036LL  25336.31199374  .00009946  00000+0  21036-2 0  9998",
        "tle_line2": "2 34139  74.0308 273.9338 0042617 346.6201 168.4619 14.58810246879975"
      },
      "geometry": {
        "type": "Point",
        "coordinates": [
          -44.49436461816368,
          67.16540572301125
        ]
      }
    }
  ]
}